[{"OBJECT_NAME":"STARLINK-32773","OBJECT_ID":"2025-006T","EPOCH":"2026-03-09T00:44:19.470624","MEAN_MOTION":15.27599857,"ECCENTRICITY":0.00024393,"INCLINATION":43.0026,"RA_OF_ASC_NODE":296.1473,"ARG_OF_PERICENTER":275.0117,"MEAN_ANOMALY":85.0457,"EPHEMERIS_TYPE":0,"CLASSIFICATION_TYPE":"U","NORAD_CAT_ID":62571,"ELEMENT_SET_NO":999,"REV_AT_EPOCH":6476,"BSTAR":0.0010783774,"MEAN_MOTION_DOT":0.00029551,"MEAN_MOTION_DDOT":0},{"OBJECT_NAME":"OBJECT B","OBJECT_ID":"2025-313B","EPOCH":"2026-03-09T22:01:30.454176","MEAN_MOTION":14.73613198,"ECCENTRICITY":0.02934893,"INCLINATION":97.5206,"RA_OF_ASC_NODE":141.38,"ARG_OF_PERICENTER":298.1139,"MEAN_ANOMALY":59.0692,"EPHEMERIS_TYPE":0,"CLASSIFICATION_TYPE":"U","NORAD_CAT_ID":67249,"ELEMENT_SET_NO":999,"REV_AT_EPOCH":1051,"BSTAR":0.00024043091,"MEAN_MOTION_DOT":3.075e-5,"MEAN_MOTION_DDOT":0}]
